[{"OBJECT_NAME":"STARLINK-34814","OBJECT_ID":"2025-167Y","EPOCH":"2026-03-23T22:44:38.533344","MEAN_MOTION":15.3016675,"ECCENTRICITY":9.337e-5,"INCLINATION":53.1565,"RA_OF_ASC_NODE":320.3704,"ARG_OF_PERICENTER":96.4207,"MEAN_ANOMALY":263.69,"EPHEMERIS_TYPE":0,"CLASSIFICATION_TYPE":"U","NORAD_CAT_ID":65100,"ELEMENT_SET_NO":999,"REV_AT_EPOCH":3566,"BSTAR":0.00080014503,"MEAN_MOTION_DOT":0.00023389,"MEAN_MOTION_DDOT":0},{"OBJECT_NAME":"STARLINK-34285","OBJECT_ID":"2025-167Z","EPOCH":"2026-03-23T22:40:05.206944","MEAN_MOTION":15.30169312,"ECCENTRICITY":0.00013245,"INCLINATION":53.1569,"RA_OF_ASC_NODE":320.3502,"ARG_OF_PERICENTER":84.6437,"MEAN_ANOMALY":275.4715,"EPHEMERIS_TYPE":0,"CLASSIFICATION_TYPE":"U","NORAD_CAT_ID":65101,"ELEMENT_SET_NO":999,"REV_AT_EPOCH":3566,"BSTAR":0.00088410025,"MEAN_MOTION_DOT":0.00025892,"MEAN_MOTION_DDOT":0},{"OBJECT_NAME":"STARLINK-34857","OBJECT_ID":"2025-167AA","EPOCH":"2026-03-23T22:29:26.762784","MEAN_MOTION":15.30174801,"ECCENTRICITY":0.00013484,"INCLINATION":53.1592,"RA_OF_ASC_NODE":320.3021,"ARG_OF_PERICENTER":41.4575,"MEAN_ANOMALY":318.6528,"EPHEMERIS_TYPE":0,"CLASSIFICATION_TYPE":"U","NORAD_CAT_ID":65102,"ELEMENT_SET_NO":999,"REV_AT_EPOCH":3566,"BSTAR":0.00060845433,"MEAN_MOTION_DOT":0.0001769,"MEAN_MOTION_DDOT":0},{"OBJECT_NAME":"STARLINK-34887","OBJECT_ID":"2025-167AB","EPOCH":"2026-03-23T22:32:29.264640","MEAN_MOTION":15.30174632,"ECCENTRICITY":0.00015567,"INCLINATION":53.1584,"RA_OF_ASC_NODE":320.3161,"ARG_OF_PERICENTER":53.4444,"MEAN_ANOMALY":306.67,"EPHEMERIS_TYPE":0,"CLASSIFICATION_TYPE":"U","NORAD_CAT_ID":65103,"ELEMENT_SET_NO":999,"REV_AT_EPOCH":3566,"BSTAR":0.00098282116,"MEAN_MOTION_DOT":0.00028839,"MEAN_MOTION_DDOT":0},{"OBJECT_NAME":"STARLINK-34481","OBJECT_ID":"2025-167AC","EPOCH":"2026-03-23T22:24:53.064864","MEAN_MOTION":15.30177858,"ECCENTRICITY":0.00015082,"INCLINATION":53.1598,"RA_OF_ASC_NODE":320.2814,"ARG_OF_PERICENTER":85.9608,"MEAN_ANOMALY":274.1565,"EPHEMERIS_TYPE":0,"CLASSIFICATION_TYPE":"U","NORAD_CAT_ID":65104,"ELEMENT_SET_NO":999,"REV_AT_EPOCH":3566,"BSTAR":0.00052594564,"MEAN_MOTION_DOT":0.00015239,"MEAN_MOTION_DDOT":0},{"OBJECT_NAME":"STARLINK-34545","OBJECT_ID":"2025-167AD","EPOCH":"2026-03-23T22:20:19.992480","MEAN_MOTION":15.30186328,"ECCENTRICITY":0.00018871,"INCLINATION":53.1593,"RA_OF_ASC_NODE":320.2614,"ARG_OF_PERICENTER":37.4461,"MEAN_ANOMALY":322.6671,"EPHEMERIS_TYPE":0,"CLASSIFICATION_TYPE":"U","NORAD_CAT_ID":65105,"ELEMENT_SET_NO":999,"REV_AT_EPOCH":3566,"BSTAR":0.00070163494,"MEAN_MOTION_DOT":0.0002047,"MEAN_MOTION_DDOT":0},{"OBJECT_NAME":"STARLINK-34956","OBJECT_ID":"2025-175A","EPOCH":"2026-03-23T21:34:55.015104","MEAN_MOTION":15.05661318,"ECCENTRICITY":0.00034536,"INCLINATION":97.6017,"RA_OF_ASC_NODE":316.5864,"ARG_OF_PERICENTER":81.5348,"MEAN_ANOMALY":278.627,"EPHEMERIS_TYPE":0,"CLASSIFICATION_TYPE":"U","NORAD_CAT_ID":65174,"ELEMENT_SET_NO":999,"REV_AT_EPOCH":3474,"BSTAR":0.00027726151,"MEAN_MOTION_DOT":3.944e-5,"MEAN_MOTION_DDOT":0},{"OBJECT_NAME":"STARLINK-34949","OBJECT_ID":"2025-175B","EPOCH":"2026-03-23T21:30:55.801152","MEAN_MOTION":15.05663463,"ECCENTRICITY":0.00024642,"INCLINATION":97.602,"RA_OF_ASC_NODE":316.5903,"ARG_OF_PERICENTER":71.3928,"MEAN_ANOMALY":288.7566,"EPHEMERIS_TYPE":0,"CLASSIFICATION_TYPE":"U","NORAD_CAT_ID":65175,"ELEMENT_SET_NO":999,"REV_AT_EPOCH":3478,"BSTAR":0.0003273268,"MEAN_MOTION_DOT":4.667e-5,"MEAN_MOTION_DDOT":0},{"OBJECT_NAME":"STARLINK-34707","OBJECT_ID":"2025-175C","EPOCH":"2026-03-23T21:26:56.885280","MEAN_MOTION":15.05654995,"ECCENTRICITY":0.00025574,"INCLINATION":97.6025,"RA_OF_ASC_NODE":316.5932,"ARG_OF_PERICENTER":64.4335,"MEAN_ANOMALY":295.7156,"EPHEMERIS_TYPE":0,"CLASSIFICATION_TYPE":"U","NORAD_CAT_ID":65176,"ELEMENT_SET_NO":999,"REV_AT_EPOCH":3477,"BSTAR":0.00038435704,"MEAN_MOTION_DOT":5.49e-5,"MEAN_MOTION_DDOT":0},{"OBJECT_NAME":"STARLINK-34967","OBJECT_ID":"2025-175D","EPOCH":"2026-03-23T21:22:57.257472","MEAN_MOTION":15.05660359,"ECCENTRICITY":0.00024712,"INCLINATION":97.6021,"RA_OF_ASC_NODE":316.5977,"ARG_OF_PERICENTER":78.4712,"MEAN_ANOMALY":281.6792,"EPHEMERIS_TYPE":0,"CLASSIFICATION_TYPE":"U","NORAD_CAT_ID":65177,"ELEMENT_SET_NO":999,"REV_AT_EPOCH":3477,"BSTAR":0.00030280707,"MEAN_MOTION_DOT":4.312e-5,"MEAN_MOTION_DDOT":0},{"OBJECT_NAME":"STARLINK-34929","OBJECT_ID":"2025-175E","EPOCH":"2026-03-23T21:18:58.736448","MEAN_MOTION":15.05651624,"ECCENTRICITY":0.00027594,"INCLINATION":97.6018,"RA_OF_ASC_NODE":316.6011,"ARG_OF_PERICENTER":81.5738,"MEAN_ANOMALY":278.5801,"EPHEMERIS_TYPE":0,"CLASSIFICATION_TYPE":"U","NORAD_CAT_ID":65178,"ELEMENT_SET_NO":999,"REV_AT_EPOCH":3477,"BSTAR":0.00035567167,"MEAN_MOTION_DOT":5.075e-5,"MEAN_MOTION_DDOT":0},{"OBJECT_NAME":"STARLINK-34932","OBJECT_ID":"2025-175F","EPOCH":"2026-03-23T21:10:59.174976","MEAN_MOTION":15.05653746,"ECCENTRICITY":0.00022487,"INCLINATION":97.6029,"RA_OF_ASC_NODE":316.6088,"ARG_OF_PERICENTER":85.6949,"MEAN_ANOMALY":274.4535,"EPHEMERIS_TYPE":0,"CLASSIFICATION_TYPE":"U","NORAD_CAT_ID":65179,"ELEMENT_SET_NO":999,"REV_AT_EPOCH":3477,"BSTAR":0.00017287612,"MEAN_MOTION_DOT":2.435e-5,"MEAN_MOTION_DDOT":0},{"OBJECT_NAME":"STARLINK-34862","OBJECT_ID":"2025-175G","EPOCH":"2026-03-23T21:07:00.537312","MEAN_MOTION":15.05669635,"ECCENTRICITY":0.00023329,"INCLINATION":97.6019,"RA_OF_ASC_NODE":316.6118,"ARG_OF_PERICENTER":78.536,"MEAN_ANOMALY":281.6129,"EPHEMERIS_TYPE":0,"CLASSIFICATION_TYPE":"U","NORAD_CAT_ID":65180,"ELEMENT_SET_NO":999,"REV_AT_EPOCH":3477,"BSTAR":0.00037444334,"MEAN_MOTION_DOT":5.349e-5,"MEAN_MOTION_DDOT":0},{"OBJECT_NAME":"STARLINK-34942","OBJECT_ID":"2025-175H","EPOCH":"2026-03-23T21:15:00.894528","MEAN_MOTION":15.05653531,"ECCENTRICITY":0.0002915,"INCLINATION":97.6015,"RA_OF_ASC_NODE":316.6051,"ARG_OF_PERICENTER":83.4002,"MEAN_ANOMALY":276.7557,"EPHEMERIS_TYPE":0,"CLASSIFICATION_TYPE":"U","NORAD_CAT_ID":65181,"ELEMENT_SET_NO":999,"REV_AT_EPOCH":3474,"BSTAR":0.0010846462,"MEAN_MOTION_DOT":0.00015627,"MEAN_MOTION_DDOT":0},{"OBJECT_NAME":"STARLINK-34944","OBJECT_ID":"2025-175J","EPOCH":"2026-03-23T14:40:13.766880","MEAN_MOTION":15.0565144,"ECCENTRICITY":0.00023898,"INCLINATION":97.6018,"RA_OF_ASC_NODE":316.3533,"ARG_OF_PERICENTER":85.632,"MEAN_ANOMALY":274.518,"EPHEMERIS_TYPE":0,"CLASSIFICATION_TYPE":"U","NORAD_CAT_ID":65182,"ELEMENT_SET_NO":999,"REV_AT_EPOCH":3473,"BSTAR":0.00026421202,"MEAN_MOTION_DOT":3.754e-5,"MEAN_MOTION_DDOT":0},{"OBJECT_NAME":"STARLINK-34939","OBJECT_ID":"2025-175K","EPOCH":"2026-03-23T14:36:13.971456","MEAN_MOTION":15.05661617,"ECCENTRICITY":0.0001438,"INCLINATION":97.6028,"RA_OF_ASC_NODE":316.357,"ARG_OF_PERICENTER":93.1504,"MEAN_ANOMALY":266.9887,"EPHEMERIS_TYPE":0,"CLASSIFICATION_TYPE":"U","NORAD_CAT_ID":65183,"ELEMENT_SET_NO":999,"REV_AT_EPOCH":3470,"BSTAR":0.00026951585,"MEAN_MOTION_DOT":3.831e-5,"MEAN_MOTION_DDOT":0},{"OBJECT_NAME":"STARLINK-34947","OBJECT_ID":"2025-175L","EPOCH":"2026-03-23T14:32:15.937728","MEAN_MOTION":15.05605044,"ECCENTRICITY":0.00017905,"INCLINATION":97.6031,"RA_OF_ASC_NODE":316.3606,"ARG_OF_PERICENTER":74.9818,"MEAN_ANOMALY":285.1607,"EPHEMERIS_TYPE":0,"CLASSIFICATION_TYPE":"U","NORAD_CAT_ID":65184,"ELEMENT_SET_NO":999,"REV_AT_EPOCH":3473,"BSTAR":0.00068094541,"MEAN_MOTION_DOT":9.766e-5,"MEAN_MOTION_DDOT":0},{"OBJECT_NAME":"STARLINK-34945","OBJECT_ID":"2025-175M","EPOCH":"2026-03-23T14:28:15.835584","MEAN_MOTION":15.0565588,"ECCENTRICITY":0.00021492,"INCLINATION":97.603,"RA_OF_ASC_NODE":316.3641,"ARG_OF_PERICENTER":82.5701,"MEAN_ANOMALY":277.577,"EPHEMERIS_TYPE":0,"CLASSIFICATION_TYPE":"U","NORAD_CAT_ID":65185,"ELEMENT_SET_NO":999,"REV_AT_EPOCH":3473,"BSTAR":0.00036206526,"MEAN_MOTION_DOT":5.168e-5,"MEAN_MOTION_DDOT":0},{"OBJECT_NAME":"STARLINK-34965","OBJECT_ID":"2025-175N","EPOCH":"2026-03-23T22:18:47.431296","MEAN_MOTION":15.05655225,"ECCENTRICITY":0.00022288,"INCLINATION":97.6036,"RA_OF_ASC_NODE":316.6994,"ARG_OF_PERICENTER":71.9401,"MEAN_ANOMALY":288.2069,"EPHEMERIS_TYPE":0,"CLASSIFICATION_TYPE":"U","NORAD_CAT_ID":65186,"ELEMENT_SET_NO":999,"REV_AT_EPOCH":3478,"BSTAR":0.00038691472,"MEAN_MOTION_DOT":5.527e-5,"MEAN_MOTION_DDOT":0},{"OBJECT_NAME":"STARLINK-34915","OBJECT_ID":"2025-175P","EPOCH":"2026-03-23T09:37:10.917120","MEAN_MOTION":15.05650423,"ECCENTRICITY":0.00021688,"INCLINATION":97.6031,"RA_OF_ASC_NODE":316.1713,"ARG_OF_PERICENTER":84.2642,"MEAN_ANOMALY":275.8832,"EPHEMERIS_TYPE":0,"CLASSIFICATION_TYPE":"U","NORAD_CAT_ID":65187,"ELEMENT_SET_NO":999,"REV_AT_EPOCH":3470,"BSTAR":0.00054464661,"MEAN_MOTION_DOT":7.807e-5,"MEAN_MOTION_DDOT":0},{"OBJECT_NAME":"STARLINK-34972","OBJECT_ID":"2025-175Q","EPOCH":"2026-03-23T22:14:48.158592","MEAN_MOTION":15.05654879,"ECCENTRICITY":0.00014826,"INCLINATION":97.6037,"RA_OF_ASC_NODE":316.7033,"ARG_OF_PERICENTER":85.4188,"MEAN_ANOMALY":274.7208,"EPHEMERIS_TYPE":0,"CLASSIFICATION_TYPE":"U","NORAD_CAT_ID":65188,"ELEMENT_SET_NO":999,"REV_AT_EPOCH":3475,"BSTAR":0.00034095936,"MEAN_MOTION_DOT":4.863e-5,"MEAN_MOTION_DDOT":0},{"OBJECT_NAME":"STARLINK-34866","OBJECT_ID":"2025-175R","EPOCH":"2026-03-23T22:10:49.093248","MEAN_MOTION":15.05654477,"ECCENTRICITY":0.00022835,"INCLINATION":97.6031,"RA_OF_ASC_NODE":316.7072,"ARG_OF_PERICENTER":74.3647,"MEAN_ANOMALY":285.7831,"EPHEMERIS_TYPE":0,"CLASSIFICATION_TYPE":"U","NORAD_CAT_ID":65189,"ELEMENT_SET_NO":999,"REV_AT_EPOCH":3478,"BSTAR":0.00038019782,"MEAN_MOTION_DOT":5.43e-5,"MEAN_MOTION_DDOT":0},{"OBJECT_NAME":"STARLINK-34917","OBJECT_ID":"2025-175S","EPOCH":"2026-03-23T22:00:00.999936","MEAN_MOTION":15.05630985,"ECCENTRICITY":0.00018149,"INCLINATION":97.6032,"RA_OF_ASC_NODE":316.706,"ARG_OF_PERICENTER":78.1612,"MEAN_ANOMALY":256.3403,"EPHEMERIS_TYPE":0,"CLASSIFICATION_TYPE":"U","NORAD_CAT_ID":65190,"ELEMENT_SET_NO":999,"REV_AT_EPOCH":558,"BSTAR":0.0014764883,"MEAN_MOTION_DOT":0.00021297,"MEAN_MOTION_DDOT":0}]
